{
    "links": {
        "self": "http://www.neowsapp.com/rest/v1/neo/3689356?api_key=iIulBulltgU6a56xZRHN4H3l9WmuAYTsLGpBGhQ2"
    },
    "id": "3689356",
    "neo_reference_id": "3689356",
    "name": "(2014 SQ142)",
    "designation": "2014 SQ142",
    "nasa_jpl_url": "http://ssd.jpl.nasa.gov/sbdb.cgi?sstr=3689356",
    "absolute_magnitude_h": 25.3,
    "estimated_diameter": {
        "kilometers": {
            "estimated_diameter_min": 0.0231502122,
            "estimated_diameter_max": 0.0517654482
        },
        "meters": {
            "estimated_diameter_min": 23.150212221,
            "estimated_diameter_max": 51.7654482198
        },
        "miles": {
            "estimated_diameter_min": 0.0143848705,
            "estimated_diameter_max": 0.0321655483
        },
        "feet": {
            "estimated_diameter_min": 75.9521422633,
            "estimated_diameter_max": 169.8341531374
        }
    },
    "is_potentially_hazardous_asteroid": false,
    "close_approach_data": [
        {
            "close_approach_date": "2014-08-23",
            "close_approach_date_full": "2014-Aug-23 20:30",
            "epoch_date_close_approach": 1408825800000,
            "relative_velocity": {
                "kilometers_per_second": "6.3880739874",
                "kilometers_per_hour": "22997.0663547097",
                "miles_per_hour": "14289.4827024584"
            },
            "miss_distance": {
                "astronomical": "0.0485286937",
                "lunar": "18.8776618493",
                "kilometers": "7259789.211402419",
                "miles": "4511023.8370106222"
            },
            "orbiting_body": "Earth"
        }
    ],
    "orbital_data": {
        "orbit_id": "5",
        "orbit_determination_date": "2017-04-06 08:38:34",
        "first_observation_date": "2014-09-20",
        "last_observation_date": "2014-09-30",
        "data_arc_in_days": 10,
        "observations_used": 17,
        "orbit_uncertainty": "8",
        "minimum_orbit_intersection": ".0423508",
        "jupiter_tisserand_invariant": "3.950",
        "epoch_osculation": "2456921.5",
        "eccentricity": ".4258889895808736",
        "semi_major_axis": "1.803161153331633",
        "inclination": "2.760557446714306",
        "ascending_node_longitude": "5.709847123191135",
        "orbital_period": "884.4030683330968",
        "perihelion_distance": "1.035214671687741",
        "perihelion_argument": "308.7129340586835",
        "aphelion_distance": "2.571107634975525",
        "perihelion_time": "2456879.818001047770",
        "mean_anomaly": "16.96683351753276",
        "mean_motion": ".4070542187042838",
        "equinox": "J2000",
        "orbit_class": {
            "orbit_class_type": "AMO",
            "orbit_class_description": "Near-Earth asteroid orbits similar to that of 1221 Amor",
            "orbit_class_range": "1.017 AU < q (perihelion) < 1.3 AU"
        }
    },
    "is_sentry_object": false
}